{
  "type": "FeatureCollection",
  "features": [
    {
      "type": "Feature",
      "properties": {
        "norad_id": 66947,
        "name": "STARLINK-36089",
        "group": "last-30-days",
        "lat": 52.42534493564948,
        "lon": 135.73907564634072,
        "alt_km": 295.00199964347485,
        "timestamp": "2025-12-16T05:49:07.986385+00:00",
        "meta_object_name": "STARLINK-36089",
        "meta_object_id": "2025-286Y",
        "meta_epoch": "2025-12-15T22:00:01.999584",
        "meta_mean_motion": 15.90830853,
        "meta_eccentricity": 6.56e-05,
        "meta_inclination": 53.1558,
        "meta_ra_of_asc_node": 34.4532,
        "meta_arg_of_pericenter": 86.8541,
        "meta_mean_anomaly": 304.7971,
        "meta_ephemeris_type": 0,
        "meta_classification_type": "U",
        "meta_norad_cat_id": 66947,
        "meta_element_set_no": 999,
        "meta_rev_at_epoch": 250,
        "meta_bstar": -0.0046568266,
        "meta_mean_motion_dot": -0.0148457,
        "meta_mean_motion_ddot": 0.00062087508,
        "tle_line1": "1 66947U 25286Y   25349.91668981 -.01484570  62088-3 -46568-2 0  9995",
        "tle_line2": "2 66947  53.1558  34.4532 0000656  86.8541 304.7971 15.90830853  2501"
      },
      "geometry": {
        "type": "Point",
        "coordinates": [
          135.73907564634072,
          52.42534493564948
        ]
      }
    },
    {
      "type": "Feature",
      "properties": {
        "norad_id": 66948,
        "name": "STARLINK-36116",
        "group": "last-30-days",
        "lat": 52.71954173507751,
        "lon": 132.7312982938676,
        "alt_km": 295.14678044837547,
        "timestamp": "2025-12-16T05:49:07.986395+00:00",
        "meta_object_name": "STARLINK-36116",
        "meta_object_id": "2025-286Z",
        "meta_epoch": "2025-12-15T22:00:01.999584",
        "meta_mean_motion": 15.90782394,
        "meta_eccentricity": 5.612e-05,
        "meta_inclination": 53.1559,
        "meta_ra_of_asc_node": 34.4568,
        "meta_arg_of_pericenter": 95.6115,
        "meta_mean_anomaly": 294.2442,
        "meta_ephemeris_type": 0,
        "meta_classification_type": "U",
        "meta_norad_cat_id": 66948,
        "meta_element_set_no": 999,
        "meta_rev_at_epoch": 250,
        "meta_bstar": -0.0046383847,
        "meta_mean_motion_dot": -0.01475138,
        "meta_mean_motion_ddot": 0.00061339919,
        "tle_line1": "1 66948U 25286Z   25349.91668981 -.01475138  61340-3 -46384-2 0  9992",
        "tle_line2": "2 66948  53.1559  34.4568 0000561  95.6115 294.2442 15.90782394  2504"
      },
      "geometry": {
        "type": "Point",
        "coordinates": [
          132.7312982938676,
          52.71954173507751
        ]
      }
    },
    {
      "type": "Feature",
      "properties": {
        "norad_id": 66949,
        "name": "STARLINK-36096",
        "group": "last-30-days",
        "lat": 52.04694833268943,
        "lon": 138.76674185061313,
        "alt_km": 294.9328263466223,
        "timestamp": "2025-12-16T05:49:07.986405+00:00",
        "meta_object_name": "STARLINK-36096",
        "meta_object_id": "2025-286AA",
        "meta_epoch": "2025-12-15T22:00:01.999584",
        "meta_mean_motion": 15.90879867,
        "meta_eccentricity": 6.562e-05,
        "meta_inclination": 53.1559,
        "meta_ra_of_asc_node": 34.4495,
        "meta_arg_of_pericenter": 87.2328,
        "meta_mean_anomaly": 306.2554,
        "meta_ephemeris_type": 0,
        "meta_classification_type": "U",
        "meta_norad_cat_id": 66949,
        "meta_element_set_no": 999,
        "meta_rev_at_epoch": 250,
        "meta_bstar": -0.0046733304,
        "meta_mean_motion_dot": -0.01493462,
        "meta_mean_motion_ddot": 0.00062798632,
        "tle_line1": "1 66949U 25286AA  25349.91668981 -.01493462  62799-3 -46733-2 0  9990",
        "tle_line2": "2 66949  53.1559  34.4495 0000656  87.2328 306.2554 15.90879867  2502"
      },
      "geometry": {
        "type": "Point",
        "coordinates": [
          138.76674185061313,
          52.04694833268943
        ]
      }
    },
    {
      "type": "Feature",
      "properties": {
        "norad_id": 66950,
        "name": "STARLINK-36111",
        "group": "last-30-days",
        "lat": 51.011791223296115,
        "lon": 144.90769263464875,
        "alt_km": 294.86416901239954,
        "timestamp": "2025-12-16T05:49:07.986415+00:00",
        "meta_object_name": "STARLINK-36111",
        "meta_object_id": "2025-286AB",
        "meta_epoch": "2025-12-15T22:00:01.999584",
        "meta_mean_motion": 15.90977968,
        "meta_eccentricity": 6.003e-05,
        "meta_inclination": 53.1559,
        "meta_ra_of_asc_node": 34.4415,
        "meta_arg_of_pericenter": 84.8708,
        "meta_mean_anomaly": 312.4601,
        "meta_ephemeris_type": 0,
        "meta_classification_type": "U",
        "meta_norad_cat_id": 66950,
        "meta_element_set_no": 999,
        "meta_rev_at_epoch": 250,
        "meta_bstar": -0.0046785301,
        "meta_mean_motion_dot": -0.0150254,
        "meta_mean_motion_ddot": 0.000635581,
        "tle_line1": "1 66950U 25286AB  25349.91668981 -.01502540  63558-3 -46785-2 0  9991",
        "tle_line2": "2 66950  53.1559  34.4415 0000600  84.8708 312.4601 15.90977968  2503"
      },
      "geometry": {
        "type": "Point",
        "coordinates": [
          144.90769263464875,
          51.011791223296115
        ]
      }
    },
    {
      "type": "Feature",
      "properties": {
        "norad_id": 66951,
        "name": "STARLINK-35999",
        "group": "last-30-days",
        "lat": 50.3344907443166,
        "lon": 148.05023854672416,
        "alt_km": 294.815495392083,
        "timestamp": "2025-12-16T05:49:07.986425+00:00",
        "meta_object_name": "STARLINK-35999",
        "meta_object_id": "2025-286AC",
        "meta_epoch": "2025-12-15T22:00:01.999584",
        "meta_mean_motion": 15.91030124,
        "meta_eccentricity": 6.328e-05,
        "meta_inclination": 53.1559,
        "meta_ra_of_asc_node": 34.4371,
        "meta_arg_of_pericenter": 84.1723,
        "meta_mean_anomaly": 315.2032,
        "meta_ephemeris_type": 0,
        "meta_classification_type": "U",
        "meta_norad_cat_id": 66951,
        "meta_element_set_no": 999,
        "meta_rev_at_epoch": 250,
        "meta_bstar": -0.0046966169,
        "meta_mean_motion_dot": -0.01512268,
        "meta_mean_motion_ddot": 0.00064345029,
        "tle_line1": "1 66951U 25286AC  25349.91668981 -.01512268  64345-3 -46966-2 0  9996",
        "tle_line2": "2 66951  53.1559  34.4371 0000632  84.1723 315.2032 15.91030124  2504"
      },
      "geometry": {
        "type": "Point",
        "coordinates": [
          148.05023854672416,
          50.3344907443166
        ]
      }
    },
    {
      "type": "Feature",
      "properties": {
        "norad_id": 66952,
        "name": "STARLINK-36122",
        "group": "last-30-days",
        "lat": 51.55947037246935,
        "lon": 141.9325881087565,
        "alt_km": 294.90687127792535,
        "timestamp": "2025-12-16T05:49:07.986435+00:00",
        "meta_object_name": "STARLINK-36122",
        "meta_object_id": "2025-286AD",
        "meta_epoch": "2025-12-15T22:00:01.999584",
        "meta_mean_motion": 15.90929445,
        "meta_eccentricity": 6.195e-05,
        "meta_inclination": 53.156,
        "meta_ra_of_asc_node": 34.4455,
        "meta_arg_of_pericenter": 81.8946,
        "meta_mean_anomaly": 313.5524,
        "meta_ephemeris_type": 0,
        "meta_classification_type": "U",
        "meta_norad_cat_id": 66952,
        "meta_element_set_no": 999,
        "meta_rev_at_epoch": 250,
        "meta_bstar": -0.0046750427,
        "meta_mean_motion_dot": -0.01497752,
        "meta_mean_motion_ddot": 0.00063158798,
        "tle_line1": "1 66952U 25286AD  25349.91668981 -.01497752  63159-3 -46750-2 0  9990",
        "tle_line2": "2 66952  53.1560  34.4455 0000619  81.8946 313.5524 15.90929445  2505"
      },
      "geometry": {
        "type": "Point",
        "coordinates": [
          141.9325881087565,
          51.55947037246935
        ]
      }
    },
    {
      "type": "Feature",
      "properties": {
        "norad_id": 66953,
        "name": "HULIANWANG DIGUI-114",
        "group": "last-30-days",
        "lat": 19.88423867455781,
        "lon": 163.60833792763117,
        "alt_km": 999.0074742036641,
        "timestamp": "2025-12-16T05:49:07.986445+00:00",
        "meta_object_name": "HULIANWANG DIGUI-114",
        "meta_object_id": "2025-287A",
        "meta_epoch": "2025-12-15T20:15:59.937408",
        "meta_mean_motion": 13.68689195,
        "meta_eccentricity": 0.00087999,
        "meta_inclination": 86.496,
        "meta_ra_of_asc_node": 345.0232,
        "meta_arg_of_pericenter": 195.8466,
        "meta_mean_anomaly": 164.2419,
        "meta_ephemeris_type": 0,
        "meta_classification_type": "U",
        "meta_norad_cat_id": 66953,
        "meta_element_set_no": 999,
        "meta_rev_at_epoch": 95,
        "meta_bstar": 2.5636052e-05,
        "meta_mean_motion_dot": 3.9e-07,
        "meta_mean_motion_ddot": 0,
        "tle_line1": "1 66953U 25287A   25349.84444372  .00000039  00000+0  25636-4 0  9999",
        "tle_line2": "2 66953  86.4960 345.0232 0008799 195.8466 164.2419 13.68689195   952"
      },
      "geometry": {
        "type": "Point",
        "coordinates": [
          163.60833792763117,
          19.88423867455781
        ]
      }
    }
  ]
}